{
  "type": "FeatureCollection",
  "features": [
    {
      "type": "Feature",
      "properties": {
        "norad_id": 28051,
        "name": "IRS-P6 (RESOURCESAT-1)",
        "group": "resource",
        "lat": 8.872717259462883,
        "lon": 29.74107653565122,
        "alt_km": 816.2293612345993,
        "timestamp": "2025-12-16T19:34:23.921415+00:00",
        "meta_object_name": "IRS-P6 (RESOURCESAT-1)",
        "meta_object_id": "2003-046A",
        "meta_epoch": "2025-12-16T00:00:04.159296",
        "meta_mean_motion": 14.36076201,
        "meta_eccentricity": 0.006432,
        "meta_inclination": 98.2182,
        "meta_ra_of_asc_node": 30.2561,
        "meta_arg_of_pericenter": 170.9074,
        "meta_mean_anomaly": 304.8131,
        "meta_ephemeris_type": 0,
        "meta_classification_type": "U",
        "meta_norad_cat_id": 28051,
        "meta_element_set_no": 999,
        "meta_rev_at_epoch": 15423,
        "meta_bstar": 4.3610576e-05,
        "meta_mean_motion_dot": 8.9e-07,
        "meta_mean_motion_ddot": 0,
        "tle_line1": "1 28051U 03046A   25350.00004814  .00000089  00000+0  43611-4 0  9996",
        "tle_line2": "2 28051  98.2182  30.2561 0064320 170.9074 304.8131 14.36076201154233"
      },
      "geometry": {
        "type": "Point",
        "coordinates": [
          29.74107653565122,
          8.872717259462883
        ]
      }
    },
    {
      "type": "Feature",
      "properties": {
        "norad_id": 28220,
        "name": "SHIYAN-1 (SY-1)",
        "group": "resource",
        "lat": 26.96019458413118,
        "lon": -123.3580497303162,
        "alt_km": 483.5308255126356,
        "timestamp": "2025-12-16T19:34:23.921427+00:00",
        "meta_object_name": "SHIYAN-1 (SY-1)",
        "meta_object_id": "2004-012A",
        "meta_epoch": "2025-12-15T22:28:42.900096",
        "meta_mean_motion": 15.28232207,
        "meta_eccentricity": 0.00054522,
        "meta_inclination": 97.894,
        "meta_ra_of_asc_node": 51.6639,
        "meta_arg_of_pericenter": 313.0552,
        "meta_mean_anomaly": 47.0229,
        "meta_ephemeris_type": 0,
        "meta_classification_type": "U",
        "meta_norad_cat_id": 28220,
        "meta_element_set_no": 999,
        "meta_rev_at_epoch": 18305,
        "meta_bstar": 0.00037983459,
        "meta_mean_motion_dot": 0.00010375,
        "meta_mean_motion_ddot": 0,
        "tle_line1": "1 28220U 04012A   25349.93660764  .00010375  00000+0  37983-3 0  9993",
        "tle_line2": "2 28220  97.8940  51.6639 0005452 313.0552  47.0229 15.28232207183051"
      },
      "geometry": {
        "type": "Point",
        "coordinates": [
          -123.3580497303162,
          26.96019458413118
        ]
      }
    },
    {
      "type": "Feature",
      "properties": {
        "norad_id": 28376,
        "name": "AURA",
        "group": "resource",
        "lat": -76.46730076635511,
        "lon": -21.500171978065918,
        "alt_km": 698.3068108959606,
        "timestamp": "2025-12-16T19:34:23.921438+00:00",
        "meta_object_name": "AURA",
        "meta_object_id": "2004-026A",
        "meta_epoch": "2025-12-15T20:55:24.865248",
        "meta_mean_motion": 14.60954081,
        "meta_eccentricity": 0.00012911,
        "meta_inclination": 98.3187,
        "meta_ra_of_asc_node": 300.1129,
        "meta_arg_of_pericenter": 93.5806,
        "meta_mean_anomaly": 266.5542,
        "meta_ephemeris_type": 0,
        "meta_classification_type": "U",
        "meta_norad_cat_id": 28376,
        "meta_element_set_no": 999,
        "meta_rev_at_epoch": 13944,
        "meta_bstar": 0.00021884025,
        "meta_mean_motion_dot": 1.024e-05,
        "meta_mean_motion_ddot": 0,
        "tle_line1": "1 28376U 04026A   25349.87181557  .00001024  00000+0  21884-3 0  9995",
        "tle_line2": "2 28376  98.3187 300.1129 0001291  93.5806 266.5542 14.60954081139443"
      },
      "geometry": {
        "type": "Point",
        "coordinates": [
          -21.500171978065918,
          -76.46730076635511
        ]
      }
    },
    {
      "type": "Feature",
      "properties": {
        "norad_id": 28649,
        "name": "IRS-P5 (CARTOSAT-1)",
        "group": "resource",
        "lat": -25.004847942057516,
        "lon": -166.49772414341956,
        "alt_km": 602.9644040630155,
        "timestamp": "2025-12-16T19:34:23.921449+00:00",
        "meta_object_name": "IRS-P5 (CARTOSAT-1)",
        "meta_object_id": "2005-017A",
        "meta_epoch": "2025-12-15T21:42:32.849568",
        "meta_mean_motion": 14.904177,
        "meta_eccentricity": 0.00010601,
        "meta_inclination": 97.5496,
        "meta_ra_of_asc_node": 16.178,
        "meta_arg_of_pericenter": 48.1123,
        "meta_mean_anomaly": 312.0186,
        "meta_ephemeris_type": 0,
        "meta_classification_type": "U",
        "meta_norad_cat_id": 28649,
        "meta_element_set_no": 999,
        "meta_rev_at_epoch": 11651,
        "meta_bstar": 0.00016389445,
        "meta_mean_motion_dot": 1.544e-05,
        "meta_mean_motion_ddot": 0,
        "tle_line1": "1 28649U 05017A   25349.90454687  .00001544  00000+0  16389-3 0  9991",
        "tle_line2": "2 28649  97.5496  16.1780 0001060  48.1123 312.0186 14.90417700116518"
      },
      "geometry": {
        "type": "Point",
        "coordinates": [
          -166.49772414341956,
          -25.004847942057516
        ]
      }
    },
    {
      "type": "Feature",
      "properties": {
        "norad_id": 28893,
        "name": "SINAH 1",
        "group": "resource",
        "lat": 8.436469604061726,
        "lon": -59.381931973079816,
        "alt_km": 674.6896114568217,
        "timestamp": "2025-12-16T19:34:23.921460+00:00",
        "meta_object_name": "SINAH 1",
        "meta_object_id": "2005-043D",
        "meta_epoch": "2025-12-15T21:28:10.740864",
        "meta_mean_motion": 14.63966015,
        "meta_eccentricity": 0.00154828,
        "meta_inclination": 98.2605,
        "meta_ra_of_asc_node": 118.4602,
        "meta_arg_of_pericenter": 127.7099,
        "meta_mean_anomaly": 232.551,
        "meta_ephemeris_type": 0,
        "meta_classification_type": "U",
        "meta_norad_cat_id": 28893,
        "meta_element_set_no": 999,
        "meta_rev_at_epoch": 7370,
        "meta_bstar": 9.1674571e-05,
        "meta_mean_motion_dot": 4.32e-06,
        "meta_mean_motion_ddot": 0,
        "tle_line1": "1 28893U 05043D   25349.89456876  .00000432  00000+0  91675-4 0  9998",
        "tle_line2": "2 28893  98.2605 118.4602 0015482 127.7099 232.5510 14.63966015 73705"
      },
      "geometry": {
        "type": "Point",
        "coordinates": [
          -59.381931973079816,
          8.436469604061726
        ]
      }
    },
    {
      "type": "Feature",
      "properties": {
        "norad_id": 29079,
        "name": "EROS B",
        "group": "resource",
        "lat": -78.9050551277036,
        "lon": 148.728764695798,
        "alt_km": 365.87162981036636,
        "timestamp": "2025-12-16T19:34:23.921471+00:00",
        "meta_object_name": "EROS B",
        "meta_object_id": "2006-014A",
        "meta_epoch": "2025-12-15T22:29:49.835040",
        "meta_mean_motion": 15.69294671,
        "meta_eccentricity": 0.00028297,
        "meta_inclination": 97.3464,
        "meta_ra_of_asc_node": 106.6654,
        "meta_arg_of_pericenter": 310.8296,
        "meta_mean_anomaly": 49.272,
        "meta_ephemeris_type": 0,
        "meta_classification_type": "U",
        "meta_norad_cat_id": 29079,
        "meta_element_set_no": 999,
        "meta_rev_at_epoch": 9130,
        "meta_bstar": 0.0011709616,
        "meta_mean_motion_dot": 0.00138414,
        "meta_mean_motion_ddot": 0,
        "tle_line1": "1 29079U 06014A   25349.93738235  .00138414  00000+0  11710-2 0  9993",
        "tle_line2": "2 29079  97.3464 106.6654 0002829 310.8296  49.2720 15.69294671 91307"
      },
      "geometry": {
        "type": "Point",
        "coordinates": [
          148.728764695798,
          -78.9050551277036
        ]
      }
    },
    {
      "type": "Feature",
      "properties": {
        "norad_id": 29228,
        "name": "RESURS-DK 1",
        "group": "resource",
        "lat": 69.86228284412454,
        "lon": 176.7549388142083,
        "alt_km": 526.8367562856529,
        "timestamp": "2025-12-16T19:34:23.921482+00:00",
        "meta_object_name": "RESURS-DK 1",
        "meta_object_id": "2006-021A",
        "meta_epoch": "2025-12-15T17:46:56.540352",
        "meta_mean_motion": 15.12179153,
        "meta_eccentricity": 0.00069743,
        "meta_inclination": 69.9335,
        "meta_ra_of_asc_node": 94.0823,
        "meta_arg_of_pericenter": 256.9262,
        "meta_mean_anomaly": 103.1125,
        "meta_ephemeris_type": 0,
        "meta_classification_type": "U",
        "meta_norad_cat_id": 29228,
        "meta_element_set_no": 999,
        "meta_rev_at_epoch": 7483,
        "meta_bstar": 0.00013214008,
        "meta_mean_motion_dot": 2.179e-05,
        "meta_mean_motion_ddot": 0,
        "tle_line1": "1 29228U 06021A   25349.74093218  .00002179  00000+0  13214-3 0  9991",
        "tle_line2": "2 29228  69.9335  94.0823 0006974 256.9262 103.1125 15.12179153 74834"
      },
      "geometry": {
        "type": "Point",
        "coordinates": [
          176.7549388142083,
          69.86228284412454
        ]
      }
    }
  ]
}